[{"OBJECT_NAME":"TEVEL2-4","OBJECT_ID":"2025-052D","EPOCH":"2026-03-06T05:30:53.328960","MEAN_MOTION":15.3074586,"ECCENTRICITY":0.00046432,"INCLINATION":97.4026,"RA_OF_ASC_NODE":321.6683,"ARG_OF_PERICENTER":102.3485,"MEAN_ANOMALY":257.8276,"EPHEMERIS_TYPE":0,"CLASSIFICATION_TYPE":"U","NORAD_CAT_ID":63213,"ELEMENT_SET_NO":999,"REV_AT_EPOCH":5434,"BSTAR":0.00072449187,"MEAN_MOTION_DOT":0.00021496,"MEAN_MOTION_DDOT":0},{"OBJECT_NAME":"TEVEL2-5","OBJECT_ID":"2025-052E","EPOCH":"2026-03-06T05:46:16.394592","MEAN_MOTION":15.30628333,"ECCENTRICITY":0.00046068,"INCLINATION":97.4024,"RA_OF_ASC_NODE":321.6522,"ARG_OF_PERICENTER":102.6614,"MEAN_ANOMALY":257.5142,"EPHEMERIS_TYPE":0,"CLASSIFICATION_TYPE":"U","NORAD_CAT_ID":63214,"ELEMENT_SET_NO":999,"REV_AT_EPOCH":5434,"BSTAR":0.00074811574,"MEAN_MOTION_DOT":0.0002212,"MEAN_MOTION_DDOT":0},{"OBJECT_NAME":"TEVEL2-6","OBJECT_ID":"2025-052F","EPOCH":"2026-03-06T06:00:17.336160","MEAN_MOTION":15.30586491,"ECCENTRICITY":0.00047056,"INCLINATION":97.4024,"RA_OF_ASC_NODE":321.6479,"ARG_OF_PERICENTER":103.4581,"MEAN_ANOMALY":256.7185,"EPHEMERIS_TYPE":0,"CLASSIFICATION_TYPE":"U","NORAD_CAT_ID":63215,"ELEMENT_SET_NO":999,"REV_AT_EPOCH":5434,"BSTAR":0.00075251319,"MEAN_MOTION_DOT":0.00022223,"MEAN_MOTION_DDOT":0},{"OBJECT_NAME":"TEVEL2-1","OBJECT_ID":"2025-052H","EPOCH":"2026-03-06T05:56:24.705888","MEAN_MOTION":15.30171419,"ECCENTRICITY":0.00046277,"INCLINATION":97.3999,"RA_OF_ASC_NODE":321.3811,"ARG_OF_PERICENTER":112.4118,"MEAN_ANOMALY":247.7613,"EPHEMERIS_TYPE":0,"CLASSIFICATION_TYPE":"U","NORAD_CAT_ID":63217,"ELEMENT_SET_NO":999,"REV_AT_EPOCH":5433,"BSTAR":0.00073691536,"MEAN_MOTION_DOT":0.00021481,"MEAN_MOTION_DDOT":0},{"OBJECT_NAME":"TEVEL2-3","OBJECT_ID":"2025-052J","EPOCH":"2026-03-06T05:53:02.300064","MEAN_MOTION":15.30206494,"ECCENTRICITY":0.00045821,"INCLINATION":97.4004,"RA_OF_ASC_NODE":321.3898,"ARG_OF_PERICENTER":112.8346,"MEAN_ANOMALY":247.3379,"EPHEMERIS_TYPE":0,"CLASSIFICATION_TYPE":"U","NORAD_CAT_ID":63218,"ELEMENT_SET_NO":999,"REV_AT_EPOCH":5433,"BSTAR":0.0007347758,"MEAN_MOTION_DOT":0.00021441,"MEAN_MOTION_DDOT":0},{"OBJECT_NAME":"TEVEL2-2","OBJECT_ID":"2025-052K","EPOCH":"2026-03-06T05:57:22.112640","MEAN_MOTION":15.3017427,"ECCENTRICITY":0.00045485,"INCLINATION":97.4,"RA_OF_ASC_NODE":321.3822,"ARG_OF_PERICENTER":112.7454,"MEAN_ANOMALY":247.4267,"EPHEMERIS_TYPE":0,"CLASSIFICATION_TYPE":"U","NORAD_CAT_ID":63219,"ELEMENT_SET_NO":999,"REV_AT_EPOCH":5433,"BSTAR":0.0007459905,"MEAN_MOTION_DOT":0.00021749,"MEAN_MOTION_DDOT":0},{"OBJECT_NAME":"TEVEL2-9","OBJECT_ID":"2025-052AD","EPOCH":"2026-03-06T05:35:07.794240","MEAN_MOTION":15.2847247,"ECCENTRICITY":0.00078868,"INCLINATION":97.4062,"RA_OF_ASC_NODE":320.943,"ARG_OF_PERICENTER":134.9619,"MEAN_ANOMALY":225.2261,"EPHEMERIS_TYPE":0,"CLASSIFICATION_TYPE":"U","NORAD_CAT_ID":63237,"ELEMENT_SET_NO":999,"REV_AT_EPOCH":5428,"BSTAR":0.00070036717,"MEAN_MOTION_DOT":0.0001938,"MEAN_MOTION_DDOT":0},{"OBJECT_NAME":"TEVEL2-7","OBJECT_ID":"2025-052AE","EPOCH":"2026-03-06T06:09:25.900128","MEAN_MOTION":15.28258296,"ECCENTRICITY":0.00078201,"INCLINATION":97.406,"RA_OF_ASC_NODE":320.9202,"ARG_OF_PERICENTER":133.7958,"MEAN_ANOMALY":226.3929,"EPHEMERIS_TYPE":0,"CLASSIFICATION_TYPE":"U","NORAD_CAT_ID":63238,"ELEMENT_SET_NO":999,"REV_AT_EPOCH":5428,"BSTAR":0.00071192546,"MEAN_MOTION_DOT":0.00019573,"MEAN_MOTION_DDOT":0},{"OBJECT_NAME":"TEVEL2-8","OBJECT_ID":"2025-052AF","EPOCH":"2026-03-06T06:19:28.282656","MEAN_MOTION":15.28236257,"ECCENTRICITY":0.00077443,"INCLINATION":97.406,"RA_OF_ASC_NODE":320.9075,"ARG_OF_PERICENTER":135.4315,"MEAN_ANOMALY":224.7548,"EPHEMERIS_TYPE":0,"CLASSIFICATION_TYPE":"U","NORAD_CAT_ID":63239,"ELEMENT_SET_NO":999,"REV_AT_EPOCH":5428,"BSTAR":0.0007258359,"MEAN_MOTION_DOT":0.00019944,"MEAN_MOTION_DDOT":0},{"OBJECT_NAME":"HADES-ICM","OBJECT_ID":"2025-052BN","EPOCH":"2026-03-06T03:52:19.377696","MEAN_MOTION":15.55698664,"ECCENTRICITY":0.00087189,"INCLINATION":97.3953,"RA_OF_ASC_NODE":325.4839,"ARG_OF_PERICENTER":117.9382,"MEAN_ANOMALY":242.2756,"EPHEMERIS_TYPE":0,"CLASSIFICATION_TYPE":"U","NORAD_CAT_ID":63492,"ELEMENT_SET_NO":999,"REV_AT_EPOCH":5459,"BSTAR":0.0019161313,"MEAN_MOTION_DOT":0.00133888,"MEAN_MOTION_DDOT":0}]
